{
  "type": "FeatureCollection",
  "generator": "overpass-turbo",
  "copyright": "The data included in this document is from www.openstreetmap.org. The data is made available under ODbL.",
  "timestamp": "2016-08-24T19:46:02Z",
  "features": [
    {
      "type": "Feature",
      "id": "way/216246576",
      "properties": {
        "@id": "way/216246576",
        "amenity": "pub",
        "building": "yes",
        "name": "Lucky's 13 Pub"
      },
      "geometry": {
        "type": "Polygon",
        "coordinates": [
          [
            [
              -93.3013788,
              44.8606634
            ],
            [
              -93.301035,
              44.8606634
            ],
            [
              -93.301035,
              44.860844
            ],
            [
              -93.3013788,
              44.860844
            ],
            [
              -93.3013788,
              44.8606634
            ]
          ]
        ]
      }
    },
    {
      "type": "Feature",
      "id": "way/264155316",
      "properties": {
        "@id": "way/264155316",
        "addr:city": "Edina",
        "addr:housenumber": "7501",
        "addr:postcode": "55435",
        "addr:street": "France Avenue South",
        "amenity": "cafe",
        "building": "yes",
        "cuisine": "coffee_shop",
        "name": "Starbucks",
        "phone": "+1 952 737 7820",
        "website": "http://www.starbucks.com"
      },
      "geometry": {
        "type": "Polygon",
        "coordinates": [
          [
            [
              -93.3284315,
              44.866581
            ],
            [
              -93.3284288,
              44.8664176
            ],
            [
              -93.3282437,
              44.8664195
            ],
            [
              -93.3282518,
              44.866581
            ],
            [
              -93.3284315,
              44.866581
            ]
          ]
        ]
      }
    },
    {
      "type": "Feature",
      "id": "node/1694118858",
      "properties": {
        "@id": "node/1694118858",
        "amenity": "bar",
        "name": "Houlihan's"
      },
      "geometry": {
        "type": "Point",
        "coordinates": [
          -93.2858392,
          44.8831415
        ]
      }
    },
    {
      "type": "Feature",
      "id": "node/1694130609",
      "properties": {
        "@id": "node/1694130609",
        "addr:city": "Richfield",
        "addr:housenumber": "6612",
        "addr:postcode": "55423",
        "addr:state": "MN",
        "addr:street": "Penn Avenue South",
        "amenity": "bar",
        "name": "Sandy's Tavern",
        "phone": "+1 612 869 9945",
        "website": "http://www.sandystavern.com"
      },
      "geometry": {
        "type": "Point",
        "coordinates": [
          -93.3089008,
          44.882959
        ]
      }
    },
    {
      "type": "Feature",
      "id": "node/2071744385",
      "properties": {
        "@id": "node/2071744385",
        "amenity": "cafe",
        "cuisine": "coffee_shop",
        "name": "Starbucks"
      },
      "geometry": {
        "type": "Point",
        "coordinates": [
          -93.2879882,
          44.905213
        ]
      }
    },
    {
      "type": "Feature",
      "id": "node/2698857961",
      "properties": {
        "@id": "node/2698857961",
        "amenity": "cafe",
        "cuisine": "coffee_shop",
        "name": "Caribou Coffee",
        "phone": "+1 952 915 1108",
        "website": "https://www.cariboucoffee.com"
      },
      "geometry": {
        "type": "Point",
        "coordinates": [
          -93.3279821,
          44.8744094
        ]
      }
    },
    {
      "type": "Feature",
      "id": "node/2700334564",
      "properties": {
        "@id": "node/2700334564",
        "addr:city": "Edina",
        "addr:housenumber": "6805",
        "addr:postcode": "55435",
        "addr:street": "York Avenue South",
        "amenity": "cafe",
        "cuisine": "coffee_shop",
        "name": "Caribou Coffee",
        "phone": "+1 952 929 4734",
        "website": "https://www.cariboucoffee.com"
      },
      "geometry": {
        "type": "Point",
        "coordinates": [
          -93.3205663,
          44.8792764
        ]
      }
    },
    {
      "type": "Feature",
      "id": "node/2700342780",
      "properties": {
        "@id": "node/2700342780",
        "addr:city": "Edina",
        "addr:postcode": "55435",
        "amenity": "cafe",
        "cuisine": "coffee_shop",
        "name": "Starbucks",
        "phone": "+1 952 924 0344",
        "website": "http://www.starbucks.com"
      },
      "geometry": {
        "type": "Point",
        "coordinates": [
          -93.3233411,
          44.8772351
        ]
      }
    },
    {
      "type": "Feature",
      "id": "node/3092902688",
      "properties": {
        "@id": "node/3092902688",
        "addr:city": "Edina",
        "addr:housenumber": "6559",
        "addr:postcode": "55435",
        "addr:street": "York Avenue South",
        "amenity": "cafe",
        "cuisine": "coffee_shop",
        "name": "Dunn Bros Coffee",
        "phone": "+1 612 869 2207",
        "website": "http://dunnbros.com"
      },
      "geometry": {
        "type": "Point",
        "coordinates": [
          -93.3195055,
          44.8839779
        ]
      }
    },
    {
      "type": "Feature",
      "id": "node/3093012422",
      "properties": {
        "@id": "node/3093012422",
        "amenity": "cafe",
        "cuisine": "coffee_shop",
        "name": "Caribou Coffee",
        "phone": "+1 952 831 0288",
        "website": "https://www.cariboucoffee.com"
      },
      "geometry": {
        "type": "Point",
        "coordinates": [
          -93.328301,
          44.8732693
        ]
      }
    },
    {
      "type": "Feature",
      "id": "node/3115438497",
      "properties": {
        "@id": "node/3115438497",
        "addr:city": "Bloomington",
        "addr:housenumber": "7805",
        "addr:postcode": "55431",
        "addr:street": "Southtown Center",
        "amenity": "cafe",
        "cuisine": "coffee_shop",
        "name": "Starbucks Coffee",
        "phone": "+1 952 885 9985",
        "website": "http://www.starbucks.com"
      },
      "geometry": {
        "type": "Point",
        "coordinates": [
          -93.3081594,
          44.8609721
        ]
      }
    },
    {
      "type": "Feature",
      "id": "node/3121514751",
      "properties": {
        "@id": "node/3121514751",
        "addr:city": "Bloomington",
        "addr:housenumber": "7950",
        "addr:postcode": "55431",
        "addr:street": "Penn Avenue S",
        "amenity": "cafe",
        "cuisine": "coffee_shop",
        "name": "Caribou Coffee",
        "phone": "+1 952 888 1504",
        "website": "https://www.cariboucoffee.com"
      },
      "geometry": {
        "type": "Point",
        "coordinates": [
          -93.309362,
          44.8592791
        ]
      }
    }
  ]
}